{
  "norad_id": 59898,
  "name": "STARLINK-31953",
  "history": [
    {
      "epoch": "2026-03-28T19:56:32.113536Z",
      "apogee_km": 484.23570745253346,
      "perigee_km": 482.1716789452039,
      "latitude_deg": 1.65391129998917e-05,
      "longitude_deg": -111.4838239251418,
      "height_km": 483.11313795265715,
      "semi_major_axis_km": 6861.340693198868,
      "eccentricity": 0.00015041,
      "inclination_deg": 43.0062,
      "raan_deg": 13.8957,
      "arg_perigee_deg": 262.6519,
      "mean_anomaly_deg": 97.4162,
      "mean_motion_rev_day": 15.27528372
    },
    {
      "epoch": "2026-03-29T03:47:18.451680Z",
      "apogee_km": 483.31179796316883,
      "perigee_km": 482.7244830831405,
      "latitude_deg": 3.353404605250908e-05,
      "longitude_deg": 128.65458642090485,
      "height_km": 482.54954109391883,
      "semi_major_axis_km": 6861.155140523155,
      "eccentricity": 4.28e-05,
      "inclination_deg": 43.0042,
      "raan_deg": 12.0494,
      "arg_perigee_deg": 326.4525,
      "mean_anomaly_deg": 33.63,
      "mean_motion_rev_day": 15.27590338
    },
    {
      "epoch": "2026-03-30T01:45:29.814336Z",
      "apogee_km": 483.28788686121516,
      "perigee_km": 482.78702112607425,
      "latitude_deg": -1.6674103806218714e-05,
      "longitude_deg": 153.03352042559672,
      "height_km": 482.7276487400219,
      "semi_major_axis_km": 6861.174453993644,
      "eccentricity": 3.65e-05,
      "inclination_deg": 42.9988,
      "raan_deg": 6.878,
      "arg_perigee_deg": 289.947,
      "mean_anomaly_deg": 70.1342,
      "mean_motion_rev_day": 15.27583888
    },
    {
      "epoch": "2026-03-30T01:45:29.815200Z",
      "apogee_km": 483.288092696449,
      "perigee_km": 482.7868152908404,
      "latitude_deg": -1.445602029946763e-05,
      "longitude_deg": 153.03351918129852,
      "height_km": 482.72757852905875,
      "semi_major_axis_km": 6861.174453993644,
      "eccentricity": 3.653e-05,
      "inclination_deg": 42.9988,
      "raan_deg": 6.878,
      "arg_perigee_deg": 289.947,
      "mean_anomaly_deg": 70.1342,
      "mean_motion_rev_day": 15.27583888
    },
    {
      "epoch": "2026-03-30T19:01:14.682720Z",
      "apogee_km": 483.8632819136428,
      "perigee_km": 482.2758731598651,
      "latitude_deg": 1.0072015224483926e-05,
      "longitude_deg": -110.6757460010682,
      "height_km": 482.42744273362354,
      "semi_major_axis_km": 6861.206577536754,
      "eccentricity": 0.00011568,
      "inclination_deg": 42.9991,
      "raan_deg": 2.8146,
      "arg_perigee_deg": 301.8162,
      "mean_anomaly_deg": 58.2577,
      "mean_motion_rev_day": 15.2757316
    },
    {
      "epoch": "2026-03-31T10:42:48.272256Z",
      "apogee_km": 483.787446029688,
      "perigee_km": 482.34467225041135,
      "latitude_deg": -9.226628923370972e-06,
      "longitude_deg": 9.599503085790431,
      "height_km": 482.61857625553904,
      "semi_major_axis_km": 6861.203059140049,
      "eccentricity": 0.00010514,
      "inclination_deg": 43.0054,
      "raan_deg": 359.1243,
      "arg_perigee_deg": 288.13,
      "mean_anomaly_deg": 71.9437,
      "mean_motion_rev_day": 15.27574335
    },
    {
      "epoch": "2026-04-01T00:50:13.646688Z",
      "apogee_km": 483.9037000291364,
      "perigee_km": 482.1952645950405,
      "latitude_deg": 1.0838324323722213e-05,
      "longitude_deg": 153.84015813033838,
      "height_km": 482.4721697952732,
      "semi_major_axis_km": 6861.186482312088,
      "eccentricity": 0.0001245,
      "inclination_deg": 43.0069,
      "raan_deg": 355.8007,
      "arg_perigee_deg": 294.5271,
      "mean_anomaly_deg": 65.5451,
      "mean_motion_rev_day": 15.27579871
    },
    {
      "epoch": "2026-04-02T09:47:29.471136Z",
      "apogee_km": 483.67100648488486,
      "perigee_km": 482.4368154638187,
      "latitude_deg": -5.7984884419212093e-05,
      "longitude_deg": 10.416762076954573,
      "height_km": 482.7844693942704,
      "semi_major_axis_km": 6861.190910974351,
      "eccentricity": 8.994e-05,
      "inclination_deg": 43.0023,
      "raan_deg": 348.0467,
      "arg_perigee_deg": 274.273,
      "mean_anomaly_deg": 85.8018,
      "mean_motion_rev_day": 15.27578392
    },
    {
      "epoch": "2026-04-03T17:10:37.642080Z",
      "apogee_km": 483.4046499649012,
      "perigee_km": 482.72401879252993,
      "latitude_deg": -6.648939487067449e-06,
      "longitude_deg": -109.04188933695325,
      "height_km": 482.9129351923764,
      "semi_major_axis_km": 6861.201334378715,
      "eccentricity": 4.96e-05,
      "inclination_deg": 43.0011,
      "raan_deg": 340.661,
      "arg_perigee_deg": 257.6822,
      "mean_anomaly_deg": 102.3974,
      "mean_motion_rev_day": 15.27574911
    },
    {
      "epoch": "2026-04-04T08:52:11.251488Z",
      "apogee_km": 484.1707925109622,
      "perigee_km": 481.9517437670802,
      "latitude_deg": -3.8080516210645675e-07,
      "longitude_deg": 11.229702747991585,
      "height_km": 482.59263936387094,
      "semi_major_axis_km": 6861.198268139021,
      "eccentricity": 0.00016171,
      "inclination_deg": 43.0085,
      "raan_deg": 336.9671,
      "arg_perigee_deg": 282.8341,
      "mean_anomaly_deg": 77.233,
      "mean_motion_rev_day": 15.27575935
    },
    {
      "epoch": "2026-04-05T08:24:31.939488Z",
      "apogee_km": 483.2732668024955,
      "perigee_km": 482.8963112774045,
      "latitude_deg": 5.086856672967654e-05,
      "longitude_deg": 11.638340506238395,
      "height_km": 482.75758341110026,
      "semi_major_axis_km": 6861.22178903995,
      "eccentricity": 2.747e-05,
      "inclination_deg": 43.0024,
      "raan_deg": 331.4286,
      "arg_perigee_deg": 303.1702,
      "mean_anomaly_deg": 56.9124,
      "mean_motion_rev_day": 15.2756808
    },
    {
      "epoch": "2026-04-06T00:06:06.757632Z",
      "apogee_km": 483.8436403867199,
      "perigee_km": 482.37382432593495,
      "latitude_deg": -5.7622654750218654e-05,
      "longitude_deg": 131.90605923190998,
      "height_km": 482.67910499469747,
      "semi_major_axis_km": 6861.245732356327,
      "eccentricity": 0.00010711,
      "inclination_deg": 43.0051,
      "raan_deg": 327.736,
      "arg_perigee_deg": 286.3287,
      "mean_anomaly_deg": 73.7446,
      "mean_motion_rev_day": 15.27560084
    },
    {
      "epoch": "2026-04-07T07:29:13.728480Z",
      "apogee_km": 483.53864239229006,
      "perigee_km": 482.5989316476998,
      "latitude_deg": 3.2847799576985996e-06,
      "longitude_deg": 12.452728364289626,
      "height_km": 482.64080725832247,
      "semi_major_axis_km": 6861.205787019995,
      "eccentricity": 6.848e-05,
      "inclination_deg": 43.0036,
      "raan_deg": 320.3506,
      "arg_perigee_deg": 295.7899,
      "mean_anomaly_deg": 64.2882,
      "mean_motion_rev_day": 15.27573424
    },
    {
      "epoch": "2026-04-08T07:01:34.638528Z",
      "apogee_km": 483.7124818570328,
      "perigee_km": 482.41598927156065,
      "latitude_deg": -1.176773096435526e-05,
      "longitude_deg": 12.860065994503106,
      "height_km": 482.7232134249041,
      "semi_major_axis_km": 6861.201235564296,
      "eccentricity": 9.448e-05,
      "inclination_deg": 43.0041,
      "raan_deg": 314.8118,
      "arg_perigee_deg": 280.4695,
      "mean_anomaly_deg": 79.605,
      "mean_motion_rev_day": 15.27574944
    },
    {
      "epoch": "2026-04-09T00:17:18.171168Z",
      "apogee_km": 483.68123607578764,
      "perigee_km": 482.46405748444795,
      "latitude_deg": -3.130230700464954e-06,
      "longitude_deg": 109.15885804123901,
      "height_km": 482.82593195448527,
      "semi_major_axis_km": 6861.2096467801175,
      "eccentricity": 8.87e-05,
      "inclination_deg": 43.0017,
      "raan_deg": 310.7509,
      "arg_perigee_deg": 272.1816,
      "mean_anomaly_deg": 87.8934,
      "mean_motion_rev_day": 15.27572135
    },
    {
      "epoch": "2026-04-10T06:06:16.107840Z",
      "apogee_km": 483.75963835558014,
      "perigee_km": 482.36530539890646,
      "latitude_deg": 2.877345400176772e-05,
      "longitude_deg": 13.677482335109405,
      "height_km": 482.8985057662467,
      "semi_major_axis_km": 6861.199471877243,
      "eccentricity": 0.00010161,
      "inclination_deg": 42.9989,
      "raan_deg": 303.7354,
      "arg_perigee_deg": 265.0796,
      "mean_anomaly_deg": 94.994,
      "mean_motion_rev_day": 15.27575533
    },
    {
      "epoch": "2026-04-11T19:46:01.340832Z",
      "apogee_km": 484.10211030714527,
      "perigee_km": 482.0547236267221,
      "latitude_deg": -4.843969359146743e-05,
      "longitude_deg": 158.3298795623988,
      "height_km": 482.96737061432026,
      "semi_major_axis_km": 6861.215416966933,
      "eccentricity": 0.0001492,
      "inclination_deg": 43.0024,
      "raan_deg": 294.8731,
      "arg_perigee_deg": 263.723,
      "mean_anomaly_deg": 96.3451,
      "mean_motion_rev_day": 15.27570208
    },
    {
      "epoch": "2026-04-13T04:43:18.663456Z",
      "apogee_km": 483.8488581339707,
      "perigee_km": 482.2577481026765,
      "latitude_deg": 1.1502154395097206e-05,
      "longitude_deg": 14.899359182461348,
      "height_km": 482.80013514228625,
      "semi_major_axis_km": 6861.190303118323,
      "eccentricity": 0.00011595,
      "inclination_deg": 43.0012,
      "raan_deg": 287.1181,
      "arg_perigee_deg": 272.1469,
      "mean_anomaly_deg": 87.925,
      "mean_motion_rev_day": 15.27578595
    },
    {
      "epoch": "2026-04-14T19:57:13.527648Z",
      "apogee_km": 483.98506094532513,
      "perigee_km": 482.13802629738257,
      "latitude_deg": 1.9301266569144688e-05,
      "longitude_deg": 135.57607126779564,
      "height_km": 482.77904499530797,
      "semi_major_axis_km": 6861.198543621354,
      "eccentricity": 0.0001346,
      "inclination_deg": 43.0035,
      "raan_deg": 277.8846,
      "arg_perigee_deg": 273.6971,
      "mean_anomaly_deg": 86.3727,
      "mean_motion_rev_day": 15.27575843
    }
  ]
}